LEMUR-2-LEIA-PHILIP     
1 63246U 25052AN  26192.92907026  .00000807  00000+0  74408-4 0  9991
2 63246  97.6813  84.4608 0005098 126.4901 233.6792 14.97388264 72375
LEMUR-2-LIA-MARTIN      
1 63248U 25052AQ  26192.65781543  .00003139  00000+0  27062-3 0  9991
2 63248  97.6875  84.7066 0005406  98.5199 261.6637 14.98011715 72348
LEMUR-2-DELOITTE-1      
1 63259U 25052BB  26192.70449057  .00002220  00000+0  19414-3 0  9992
2 63259  97.6886  85.0832 0002556  69.2852 290.8644 14.97765900 72366
LEMUR-2-EMERSONROSE     
1 63261U 25052BD  26192.65543939  .00003048  00000+0  25458-3 0  9997
2 63261  97.6885  85.6401 0002812  66.1030 294.0487 14.99270270 72404
LEMUR-2-MARACHE-FRAN    
1 63262U 25052BE  26192.68057115  .00001966  00000+0  16161-3 0  9995
2 63262  97.6854  86.0285 0004814 268.4363  91.6309 15.00302061 72430
LEMUR-2-THEFALCONER     
1 63264U 25052BG  26192.93489889  .00001533  00000+0  13628-3 0  9997
2 63264  97.6847  84.9044 0000474   3.9992 356.1234 14.97555399 72392
LEMUR-2-UNTITLED-SC     
1 63351U 25061A   26192.88052709  .00002354  00000+0  13423-3 0  9990
2 63351  97.5648 168.0663 0018864 174.3063 185.8386 15.13633127 71324
LEMUR-2-ESPERANZA       
1 63352U 25061B   26192.85609415  .00001811  00000+0  10385-3 0  9991
2 63352  97.5655 168.1412 0018479 173.5696 186.5776 15.13740291 71323
LEMUR-2-KREMPEL-BRO2    
1 63353U 25061C   26192.87600558  .00002429  00000+0  13631-3 0  9996
2 63353  97.5701 168.7260 0019657 166.3368 193.8400 15.14165574 71341
LEMUR-2-THERMORAPTOR    
1 63354U 25061D   26192.92282517  .00001965  00000+0  11070-3 0  9993
2 63354  97.5705 168.8529 0019426 165.0621 195.1189 15.14249085 71357
LEMUR-2-NEUROSPICY      
1 63355U 25061E   26192.82651893  .00002301  00000+0  12870-3 0  9994
2 63355  97.5633 168.3643 0017115 168.1718 191.9919 15.14366383 71349
LEMUR-2-TILLINFINITY    
1 63356U 25061F   26192.85228769  .00001969  00000+0  10880-3 0  9998
2 63356  97.5619 168.6977 0018721 156.9449 203.2627 15.14950710 71376
LEMUR-2-KREMPEL-BRO1    
1 63357U 25061G   26192.82891243  .00002240  00000+0  12394-3 0  9994
2 63357  97.5620 168.5836 0019303 158.3242 201.8812 15.14757547 71368
LEMUR-2-LANGER2SPACE    
1 63358U 25061H   26192.46392497  .00002222  00000+0  12413-3 0  9994
2 63358  97.5624 168.0248 0017035 167.8120 192.3528 15.14450351 71298
LEMUR-2-BALTO           
1 63395U 25052BH  26192.93181490  .00003059  00000+0  24849-3 0  9991
2 63395  97.6934  86.2615 0005283 341.2024  18.9004 15.00345942 72473
LEMUR-2-KRISH           
1 64561U 25135AK  26192.81705671  .00002656  00000+0  23930-3 0  9991
2 64561  97.7770 307.5283 0001627  96.8966 263.2441 14.96434298 57609
